GLOBALSTAR M045         
1 25676U 99019A   24119.50570774 -.00000048  00000+0  40609-3 0  9990
2 25676  51.9991  47.1705 0000900  93.0156  79.5259 12.27036587142486
GLOBALSTAR M019         
1 25677U 99019B   24119.52669872 -.00000119  00000+0 -30117-3 0  9994
2 25677  51.9846 148.3064 0001136 201.8333 324.7563 12.13853884134785
GLOBALSTAR M044         
1 25678U 99019C   24119.51973358 -.00000061  00000+0  32061-3 0  9996
2 25678  51.9991  47.8065 0006250 324.5017 207.1654 11.90231480121940
GLOBALSTAR M042         
1 25679U 99019D   24119.49304201 -.00000057  00000+0  32850-3 0  9990
2 25679  51.9988 141.6236 0003024 163.8110   2.2999 12.22060683134552
GLOBALSTAR M025         
1 25770U 99031A   24119.55932964 -.00000057  00000+0  32738-3 0  9991
2 25770  51.9849  39.7776 0001251 155.4905  15.3903 11.22550484435146
GLOBALSTAR M049         
1 25771U 99031B   24119.54315000 -.00000026  00000+0  13506-2 0  9994
2 25771  51.9893  53.7398 0003183  38.0985 322.0036 11.12103543 71298
GLOBALSTAR M047         
1 25772U 99031C   24119.36700752 -.00000070  00000+0 -82898-5 0  9990
2 25772  51.9820  90.7393 0016403 271.3819  88.5108 11.31920378424135
GLOBALSTAR M052         
1 25773U 99031D   24119.55387223 -.00000084  00000+0 -59651-3 0  9990
2 25773  51.9838 168.2271 0002970 205.8349 304.2730 11.15050729432252
